[{"OBJECT_NAME":"ONEWEB-0282","OBJECT_ID":"2021-060AK","EPOCH":"2025-12-09T11:36:59.198400","MEAN_MOTION":13.16596239,"ECCENTRICITY":0.00018389,"INCLINATION":87.9045,"RA_OF_ASC_NODE":266.5556,"ARG_OF_PERICENTER":70.2449,"MEAN_ANOMALY":289.888,"EPHEMERIS_TYPE":0,"CLASSIFICATION_TYPE":"U","NORAD_CAT_ID":49000,"ELEMENT_SET_NO":999,"REV_AT_EPOCH":21464,"BSTAR":0.00034029574,"MEAN_MOTION_DOT":1.43e-6,"MEAN_MOTION_DDOT":0},{"OBJECT_NAME":"ONEWEB-0283","OBJECT_ID":"2021-060AL","EPOCH":"2025-12-09T07:42:08.628480","MEAN_MOTION":13.16596476,"ECCENTRICITY":0.00018932,"INCLINATION":87.9044,"RA_OF_ASC_NODE":266.5884,"ARG_OF_PERICENTER":73.9926,"MEAN_ANOMALY":286.1413,"EPHEMERIS_TYPE":0,"CLASSIFICATION_TYPE":"U","NORAD_CAT_ID":49001,"ELEMENT_SET_NO":999,"REV_AT_EPOCH":21463,"BSTAR":0.00022746253,"MEAN_MOTION_DOT":1.0e-6,"MEAN_MOTION_DDOT":0},{"OBJECT_NAME":"ONEWEB-0284","OBJECT_ID":"2021-060AM","EPOCH":"2025-12-09T13:01:20.823168","MEAN_MOTION":13.16595573,"ECCENTRICITY":0.00015104,"INCLINATION":87.9048,"RA_OF_ASC_NODE":266.5332,"ARG_OF_PERICENTER":62.4664,"MEAN_ANOMALY":297.662,"EPHEMERIS_TYPE":0,"CLASSIFICATION_TYPE":"U","NORAD_CAT_ID":49002,"ELEMENT_SET_NO":999,"REV_AT_EPOCH":21464,"BSTAR":0.00028004344,"MEAN_MOTION_DOT":1.2e-6,"MEAN_MOTION_DDOT":0},{"OBJECT_NAME":"ONEWEB-0285","OBJECT_ID":"2021-075A","EPOCH":"2025-12-09T03:41:04.039872","MEAN_MOTION":13.12441935,"ECCENTRICITY":0.00016405,"INCLINATION":87.8941,"RA_OF_ASC_NODE":28.4087,"ARG_OF_PERICENTER":98.5332,"MEAN_ANOMALY":261.5983,"EPHEMERIS_TYPE":0,"CLASSIFICATION_TYPE":"U","NORAD_CAT_ID":49075,"ELEMENT_SET_NO":999,"REV_AT_EPOCH":21028,"BSTAR":-0.00010227163,"MEAN_MOTION_DOT":-2.4e-7,"MEAN_MOTION_DDOT":0},{"OBJECT_NAME":"ONEWEB-0286","OBJECT_ID":"2021-075B","EPOCH":"2025-12-09T05:04:46.014816","MEAN_MOTION":13.12443062,"ECCENTRICITY":0.0001707,"INCLINATION":87.8936,"RA_OF_ASC_NODE":28.4306,"ARG_OF_PERICENTER":104.6296,"MEAN_ANOMALY":255.5022,"EPHEMERIS_TYPE":0,"CLASSIFICATION_TYPE":"U","NORAD_CAT_ID":49076,"ELEMENT_SET_NO":999,"REV_AT_EPOCH":20964,"BSTAR":0.00057627,"MEAN_MOTION_DOT":2.2e-6,"MEAN_MOTION_DDOT":0},{"OBJECT_NAME":"ONEWEB-0287","OBJECT_ID":"2021-075C","EPOCH":"2025-12-09T09:39:09.214272","MEAN_MOTION":13.17651906,"ECCENTRICITY":0.00015393,"INCLINATION":87.9123,"RA_OF_ASC_NODE":43.6036,"ARG_OF_PERICENTER":115.7284,"MEAN_ANOMALY":244.4006,"EPHEMERIS_TYPE":0,"CLASSIFICATION_TYPE":"U","NORAD_CAT_ID":49077,"ELEMENT_SET_NO":999,"REV_AT_EPOCH":20863,"BSTAR":0.00012386272,"MEAN_MOTION_DOT":6.1e-7,"MEAN_MOTION_DDOT":0},{"OBJECT_NAME":"ONEWEB-0288","OBJECT_ID":"2021-075D","EPOCH":"2025-12-09T11:49:03.518112","MEAN_MOTION":13.12445261,"ECCENTRICITY":0.000157,"INCLINATION":87.8942,"RA_OF_ASC_NODE":28.3367,"ARG_OF_PERICENTER":96.714,"MEAN_ANOMALY":263.4168,"EPHEMERIS_TYPE":0,"CLASSIFICATION_TYPE":"U","NORAD_CAT_ID":49078,"ELEMENT_SET_NO":999,"REV_AT_EPOCH":21030,"BSTAR":0.00053212721,"MEAN_MOTION_DOT":2.04e-6,"MEAN_MOTION_DDOT":0},{"OBJECT_NAME":"ONEWEB-0289","OBJECT_ID":"2021-075E","EPOCH":"2025-12-09T10:34:48.469728","MEAN_MOTION":13.17649372,"ECCENTRICITY":0.00015185,"INCLINATION":87.9112,"RA_OF_ASC_NODE":43.6117,"ARG_OF_PERICENTER":87.995,"MEAN_ANOMALY":272.1356,"EPHEMERIS_TYPE":0,"CLASSIFICATION_TYPE":"U","NORAD_CAT_ID":49079,"ELEMENT_SET_NO":999,"REV_AT_EPOCH":20921,"BSTAR":0.00013168372,"MEAN_MOTION_DOT":6.4e-7,"MEAN_MOTION_DDOT":0},{"OBJECT_NAME":"ONEWEB-0290","OBJECT_ID":"2021-075F","EPOCH":"2025-12-09T09:56:06.822240","MEAN_MOTION":13.17651495,"ECCENTRICITY":0.00017014,"INCLINATION":87.9121,"RA_OF_ASC_NODE":43.5786,"ARG_OF_PERICENTER":80.5812,"MEAN_ANOMALY":279.5511,"EPHEMERIS_TYPE":0,"CLASSIFICATION_TYPE":"U","NORAD_CAT_ID":49080,"ELEMENT_SET_NO":999,"REV_AT_EPOCH":20862,"BSTAR":0.00024048541,"MEAN_MOTION_DOT":1.06e-6,"MEAN_MOTION_DDOT":0},{"OBJECT_NAME":"ONEWEB-0291","OBJECT_ID":"2021-075G","EPOCH":"2025-12-09T15:02:18.093120","MEAN_MOTION":13.17650174,"ECCENTRICITY":0.00013521,"INCLINATION":87.9123,"RA_OF_ASC_NODE":43.5433,"ARG_OF_PERICENTER":104.1786,"MEAN_ANOMALY":255.9496,"EPHEMERIS_TYPE":0,"CLASSIFICATION_TYPE":"U","NORAD_CAT_ID":49081,"ELEMENT_SET_NO":999,"REV_AT_EPOCH":20864,"BSTAR":0.00015180784,"MEAN_MOTION_DOT":7.2e-7,"MEAN_MOTION_DDOT":0},{"OBJECT_NAME":"ONEWEB-0293","OBJECT_ID":"2021-075H","EPOCH":"2025-12-09T10:10:42.249504","MEAN_MOTION":13.17649546,"ECCENTRICITY":0.00016465,"INCLINATION":87.9114,"RA_OF_ASC_NODE":43.6045,"ARG_OF_PERICENTER":97.0052,"MEAN_ANOMALY":263.1267,"EPHEMERIS_TYPE":0,"CLASSIFICATION_TYPE":"U","NORAD_CAT_ID":49082,"ELEMENT_SET_NO":999,"REV_AT_EPOCH":20864,"BSTAR":0.00012987434,"MEAN_MOTION_DOT":6.3e-7,"MEAN_MOTION_DDOT":0},{"OBJECT_NAME":"ONEWEB-0294","OBJECT_ID":"2021-075J","EPOCH":"2025-12-09T10:08:37.118112","MEAN_MOTION":13.12445264,"ECCENTRICITY":0.00014635,"INCLINATION":87.8943,"RA_OF_ASC_NODE":28.3518,"ARG_OF_PERICENTER":83.4277,"MEAN_ANOMALY":276.7018,"EPHEMERIS_TYPE":0,"CLASSIFICATION_TYPE":"U","NORAD_CAT_ID":49083,"ELEMENT_SET_NO":999,"REV_AT_EPOCH":20968,"BSTAR":0.0013423811,"MEAN_MOTION_DOT":4.96e-6,"MEAN_MOTION_DDOT":0},{"OBJECT_NAME":"ONEWEB-0295","OBJECT_ID":"2021-075K","EPOCH":"2025-12-09T13:48:11.268288","MEAN_MOTION":13.17648914,"ECCENTRICITY":0.00014055,"INCLINATION":87.9112,"RA_OF_ASC_NODE":43.5787,"ARG_OF_PERICENTER":106.545,"MEAN_ANOMALY":253.5836,"EPHEMERIS_TYPE":0,"CLASSIFICATION_TYPE":"U","NORAD_CAT_ID":49084,"ELEMENT_SET_NO":999,"REV_AT_EPOCH":20862,"BSTAR":5.8729128e-5,"MEAN_MOTION_DOT":3.6e-7,"MEAN_MOTION_DDOT":0},{"OBJECT_NAME":"ONEWEB-0296","OBJECT_ID":"2021-075L","EPOCH":"2025-12-09T09:40:34.593024","MEAN_MOTION":13.12446208,"ECCENTRICITY":0.00012674,"INCLINATION":87.8941,"RA_OF_ASC_NODE":28.3603,"ARG_OF_PERICENTER":98.3644,"MEAN_ANOMALY":261.7629,"EPHEMERIS_TYPE":0,"CLASSIFICATION_TYPE":"U","NORAD_CAT_ID":49085,"ELEMENT_SET_NO":999,"REV_AT_EPOCH":20968,"BSTAR":-0.00036052723,"MEAN_MOTION_DOT":-1.17e-6,"MEAN_MOTION_DDOT":0},{"OBJECT_NAME":"ONEWEB-0297","OBJECT_ID":"2021-075M","EPOCH":"2025-12-09T12:14:46.170240","MEAN_MOTION":13.12442836,"ECCENTRICITY":0.0001693,"INCLINATION":87.8934,"RA_OF_ASC_NODE":28.3712,"ARG_OF_PERICENTER":100.3862,"MEAN_ANOMALY":259.7457,"EPHEMERIS_TYPE":0,"CLASSIFICATION_TYPE":"U","NORAD_CAT_ID":49086,"ELEMENT_SET_NO":999,"REV_AT_EPOCH":21030,"BSTAR":0.00091431678,"MEAN_MOTION_DOT":3.42e-6,"MEAN_MOTION_DDOT":0},{"OBJECT_NAME":"ONEWEB-0298","OBJECT_ID":"2021-075N","EPOCH":"2025-12-09T10:15:45.911808","MEAN_MOTION":13.17649257,"ECCENTRICITY":0.00018158,"INCLINATION":87.9111,"RA_OF_ASC_NODE":43.6048,"ARG_OF_PERICENTER":101.2461,"MEAN_ANOMALY":258.8875,"EPHEMERIS_TYPE":0,"CLASSIFICATION_TYPE":"U","NORAD_CAT_ID":49087,"ELEMENT_SET_NO":999,"REV_AT_EPOCH":20863,"BSTAR":-7.3383406e-5,"MEAN_MOTION_DOT":-1.6e-7,"MEAN_MOTION_DDOT":0},{"OBJECT_NAME":"ONEWEB-0299","OBJECT_ID":"2021-075P","EPOCH":"2025-12-09T13:56:41.557056","MEAN_MOTION":13.17650256,"ECCENTRICITY":0.00016598,"INCLINATION":87.9122,"RA_OF_ASC_NODE":43.5359,"ARG_OF_PERICENTER":105.8949,"MEAN_ANOMALY":254.2365,"EPHEMERIS_TYPE":0,"CLASSIFICATION_TYPE":"U","NORAD_CAT_ID":49088,"ELEMENT_SET_NO":999,"REV_AT_EPOCH":20863,"BSTAR":-4.4387033e-5,"MEAN_MOTION_DOT":-4.0e-8,"MEAN_MOTION_DDOT":0}]
