ONEWEB-0282             
1 49000U 21060AK  25343.48401850  .00000143  00000+0  34030-3 0  9999
2 49000  87.9045 266.5556 0001838  70.2449 289.8880 13.16596239214644
ONEWEB-0283             
1 49001U 21060AL  25343.32093320  .00000100  00000+0  22746-3 0  9996
2 49001  87.9044 266.5884 0001893  73.9926 286.1413 13.16596476214633
ONEWEB-0284             
1 49002U 21060AM  25343.54260212  .00000120  00000+0  28004-3 0  9992
2 49002  87.9048 266.5332 0001510  62.4664 297.6620 13.16595573214649
ONEWEB-0285             
1 49075U 21075A   25343.15351898 -.00000024  00000+0 -10227-3 0  9999
2 49075  87.8941  28.4087 0001640  98.5332 261.5983 13.12441935210284
ONEWEB-0286             
1 49076U 21075B   25343.21164369  .00000220  00000+0  57627-3 0  9993
2 49076  87.8936  28.4306 0001707 104.6296 255.5022 13.12443062209643
ONEWEB-0287             
1 49077U 21075C   25343.40218998  .00000061  00000+0  12386-3 0  9999
2 49077  87.9123  43.6036 0001539 115.7284 244.4006 13.17651906208635
ONEWEB-0288             
1 49078U 21075D   25343.49240183  .00000204  00000+0  53213-3 0  9993
2 49078  87.8942  28.3367 0001570  96.7140 263.4168 13.12445261210302
ONEWEB-0289             
1 49079U 21075E   25343.44083877  .00000064  00000+0  13168-3 0  9993
2 49079  87.9112  43.6117 0001518  87.9950 272.1356 13.17649372209217
ONEWEB-0290             
1 49080U 21075F   25343.41396785  .00000106  00000+0  24049-3 0  9994
2 49080  87.9121  43.5786 0001701  80.5812 279.5511 13.17651495208627
ONEWEB-0291             
1 49081U 21075G   25343.62659830  .00000072  00000+0  15181-3 0  9990
2 49081  87.9123  43.5433 0001352 104.1786 255.9496 13.17650174208649
ONEWEB-0293             
1 49082U 21075H   25343.42410011  .00000063  00000+0  12987-3 0  9996
2 49082  87.9114  43.6045 0001646  97.0052 263.1267 13.17649546208640
ONEWEB-0294             
1 49083U 21075J   25343.42265183  .00000496  00000+0  13424-2 0  9991
2 49083  87.8943  28.3518 0001463  83.4277 276.7018 13.12445264209685
ONEWEB-0295             
1 49084U 21075K   25343.57513042  .00000036  00000+0  58729-4 0  9997
2 49084  87.9112  43.5787 0001405 106.5450 253.5836 13.17648914208624
ONEWEB-0296             
1 49085U 21075L   25343.40317816 -.00000117  00000+0 -36053-3 0  9998
2 49085  87.8941  28.3603 0001267  98.3644 261.7629 13.12446208209686
ONEWEB-0297             
1 49086U 21075M   25343.51025660  .00000342  00000+0  91432-3 0  9994
2 49086  87.8934  28.3712 0001693 100.3862 259.7457 13.12442836210309
ONEWEB-0298             
1 49087U 21075N   25343.42761472 -.00000016  00000+0 -73383-4 0  9999
2 49087  87.9111  43.6048 0001815 101.2461 258.8875 13.17649257208639
ONEWEB-0299             
1 49088U 21075P   25343.58103654 -.00000004  00000+0 -44387-4 0  9998
2 49088  87.9122  43.5359 0001659 105.8949 254.2365 13.17650256208638
